COSMOS 2425 (716)       
1 29670U 06062A   19040.65433331  .00000019  00000-0  10000-3 0  9994
2 29670  65.1640 284.5050 0023306 347.5978 103.0951  2.13105631 94373
COSMOS 2426 (717)       
1 29671U 06062B   19040.76000716  .00000019  00000-0  10000-3 0  9994
2 29671  65.1813 284.6063 0016385 162.4406 223.4264  2.13103076 94386
COSMOS 2433 (720)       
1 32275U 07052A   19040.56289390 -.00000011  00000-0  10000-3 0  9996
2 32275  65.7981  45.4063 0005422 268.1245 302.8260  2.13104431 87881
COSMOS 2432 (719)       
1 32276U 07052B   19040.63510399 -.00000010  00000-0  10000-3 0  9990
2 32276  65.8102  45.4845 0012561 321.8431 255.8649  2.13103720 87880
COSMOS 2434 (721)       
1 32393U 07065A   19041.30111382  .00000022  00000-0  00000+0 0  9995
2 32393  64.7788 283.3467 0004107  83.5312 221.3043  2.13102933 86608
COSMOS 2436 (723)       
1 32395U 07065C   19041.23849788  .00000022  00000-0  10000-3 0  9992
2 32395  64.7881 283.4006 0017184   1.8962 306.5611  2.13104272 86534
COSMOS 2456 (730)       
1 36111U 09070A   19041.09036713  .00000041  00000-0  00000+0 0  9996
2 36111  64.1948 162.9703 0003265 335.2301 340.7794  2.13102794 71266
COSMOS 2457 (733)       
1 36112U 09070B   19040.51186032  .00000040  00000-0  00000-0 0  9993
2 36112  64.1768 162.8950 0006321 154.4757 203.4083  2.13101449 71253
COSMOS 2458 (734)       
1 36113U 09070C   19041.10891078  .00000041  00000-0  10000-3 0  9998
2 36113  64.1829 162.8883 0002839  47.0712  89.1314  2.13092338 71279
COSMOS 2459 (731)       
1 36400U 10007A   19040.67007786 -.00000011  00000-0  10000-3 0  9993
2 36400  65.7052  44.4349 0027354 345.3997 164.7443  2.13102162 69618
COSMOS 2461 (735)       
1 36401U 10007B   19040.71848753 -.00000011  00000-0  10000-3 0  9996
2 36401  65.6964  44.4069 0004659  45.6506  52.1684  2.13102066 69618
COSMOS 2460 (732)       
1 36402U 10007C   19041.25046274 -.00000008  00000-0  10000-3 0  9991
2 36402  65.6887  44.3538 0002717 282.4201 263.6928  2.13101523 69627
COSMOS 2464 (736)       
1 37139U 10041C   19040.45719698  .00000020  00000-0  00000-0 0  9994
2 37139  64.3813 283.0606 0026457  13.1056 231.5237  2.13100868 65671
COSMOS 2471 (701K)      
1 37372U 11009A   19040.61753666 -.00000012  00000-0  00000-0 0  9991
2 37372  65.6845  44.3192 0010080 240.0570 329.6130  2.13107522 61888
COSMOS 2474 (742)       
1 37829U 11055A   19040.47037574  .00000041  00000-0  00000-0 0  9997
2 37829  64.5166 163.8086 0007333 240.2077 177.1794  2.13101810 57251
COSMOS 2476 (744)       
1 37867U 11064A   19040.44862709  .00000041  00000-0  00000-0 0  9992
2 37867  64.4980 163.8660 0017432 237.4091 209.3913  2.13101866 56609
COSMOS 2477 (745)       
1 37868U 11064B   19040.71202601  .00000042  00000-0  00000+0 0  9992
2 37868  64.5063 163.9075 0015131 238.1601 229.4876  2.13101658 56568
COSMOS 2475 (743)       
1 37869U 11064C   19041.09811426  .00000042  00000-0  00000+0 0  9996
2 37869  64.5136 163.8912 0019038 264.8919  95.9268  2.13101869 56584
COSMOS 2485 (747)       
1 39155U 13019A   19041.15129421  .00000043  00000-0  00000+0 0  9993
2 39155  64.6667 164.0028 0017911 232.0075  78.6555  2.13101819 45088
COSMOS 2492 (754)       
1 39620U 14012A   19040.97192347 -.00000010  00000-0  10000-3 0  9990
2 39620  65.5775  44.2154 0016031 320.4799 247.5742  2.13103303 38033
COSMOS 2500 (755)       
1 40001U 14032A   19040.65847602 -.00000012  00000-0  00000-0 0  9991
2 40001  65.5199  44.1778 0007424 228.1602 321.1248  2.13102631 36246
COSMOS 2501 (702K)      
1 40315U 14075A   19040.92340966  .00000018  00000-0  00000+0 0  9991
2 40315  64.1030 284.1719 0014866 208.3017 343.4078  2.13098451 32655
COSMOS 2514 (751)       
1 41330U 16008A   19040.43225994 -.00000014  00000-0  00000+0 0  9993
2 41330  65.3209  44.1796 0011044 229.3105 327.8543  2.13103117 23401
COSMOS 2516 (753)       
1 41554U 16032A   19040.72589609  .00000018  00000-0  00000-0 0  9990
2 41554  64.3270 284.1108 0010733 220.9914  92.1439  2.13101780 21013
COSMOS 2522 (752)       
1 42939U 17055A   19040.03316005  .00000018  00000-0  00000+0 0  9995
2 42939  64.5560 284.1700 0006416 257.8746 110.2897  2.13101988 10768
